[{"OBJECT_NAME":"STARLINK-34349","OBJECT_ID":"2025-117N","EPOCH":"2026-03-09T08:30:39.643200","MEAN_MOTION":15.30200792,"ECCENTRICITY":0.00013905,"INCLINATION":53.16,"RA_OF_ASC_NODE":41.2132,"ARG_OF_PERICENTER":100.631,"MEAN_ANOMALY":259.4847,"EPHEMERIS_TYPE":0,"CLASSIFICATION_TYPE":"U","NORAD_CAT_ID":64215,"ELEMENT_SET_NO":999,"REV_AT_EPOCH":4447,"BSTAR":0.00093324678,"MEAN_MOTION_DOT":0.00027383,"MEAN_MOTION_DDOT":0},{"OBJECT_NAME":"FREGAT DEB","OBJECT_ID":"2011-037AB","EPOCH":"2026-03-09T00:44:47.826240","MEAN_MOTION":13.5498978,"ECCENTRICITY":0.08327263,"INCLINATION":51.2024,"RA_OF_ASC_NODE":351.4028,"ARG_OF_PERICENTER":105.3557,"MEAN_ANOMALY":264.0839,"EPHEMERIS_TYPE":0,"CLASSIFICATION_TYPE":"U","NORAD_CAT_ID":45635,"ELEMENT_SET_NO":999,"REV_AT_EPOCH":24756,"BSTAR":0.012231007,"MEAN_MOTION_DOT":0.00094296,"MEAN_MOTION_DDOT":0}]
